1 42844U 17042V   20009.49408803  .00000402  00000-0  44634-4 0  9994
2 42844  97.5425 259.8569 0013935  86.1089 274.1723 14.92204154135549
1 42845U 17042W   20008.76308719 +.00000548 +00000-0 +58534-4 0  9994
2 42845 097.5397 259.0798 0014452 095.8946 264.3922 14.92510690135455
1 42845U 17042W   20009.16534448  .00000575  00000-0  61155-4 0  9992
2 42845  97.5397 259.4651 0014458  94.6918 265.5954 14.92511146135511
1 42846U 17042X   20008.49119078 +.00000202 +00000-0 +25132-4 0  9998
2 42846 097.5438 259.0795 0011155 094.4950 265.7544 14.92045801135403
1 42846U 17042X   20009.16182846  .00000263  00000-0  31190-4 0  9994
2 42846  97.5438 259.7218 0011151  92.5697 267.6800 14.92046110135504
1 42847U 17042Y   20008.76601238 +.00000316 +00000-0 +36249-4 0  9990
2 42847 097.5440 259.4835 0010791 093.0153 267.2302 14.92146939135448
1 42847U 17042Y   20009.16836758  .00000329  00000-0  37544-4 0  9995
2 42847  97.5440 259.8689 0010789  91.8710 268.3745 14.92147158135505
1 42848U 17042Z   20009.13579388 -.00000036  00000-0  17141-5 0  9994
2 42848  97.5448 260.2543 0009680  90.4738 269.7591 14.92428517135530
1 42848U 17042Z   20009.20284043 -.00000038  00000-0  14728-5 0  9993
2 42848  97.5448 260.3185 0009678  90.3007 269.9321 14.92428522135548
1 42849U 17042AA  20008.92771863  .00000066  00000-0  11624-4 0  9994
2 42849  97.5448 260.0730 0009653  92.9155 267.3169 14.92440181135465
1 42849U 17042AA  20008.92771863 +.00000066 +00000-0 +11624-4 0  9994
2 42849 097.5448 260.0730 0009653 092.9155 267.3169 14.92440181135465
1 42849U 17042AA  20009.26294855  .00000037  00000-0  88037-5 0  9994
2 42849  97.5448 260.3943 0009657  91.9848 268.2478 14.92440305135513
1 42850U 17042AB  20008.70187558 +.00003116 +00000-0 +79226-4 0  9995
2 42850 096.9133 245.3719 0008868 191.2773 168.8277 15.40277027139358
1 42850U 17042AB  20009.54643388  .00003755  00000-0  95048-4 0  9995
2 42850  96.9131 246.1703 0008972 188.0777 172.0327 15.40284436139481
1 42853U 17042AE  20008.89477630 +.00004768 +00000-0 +12650-3 0  9992
2 42853 096.9130 243.2063 0009037 197.9862 162.1066 15.38710431139214
1 42854U 17042AF  20008.89532291  .00004152  00000-0  10486-3 0  9990
2 42854  96.9137 245.5529 0008503 188.6674 171.4428 15.40303132139381
1 42854U 17042AF  20008.89532291 +.00004152 +00000-0 +10486-3 0  9990
2 42854 096.9137 245.5529 0008503 188.6674 171.4428 15.40303132139381
1 42855U 17042AG  20008.89719275 +.00004910 +00000-0 +12068-3 0  9990
2 42855 096.9128 245.7003 0008225 186.7443 173.3696 15.41046776139393
1 42856U 17042AH  20008.69835791 +.00003247 +00000-0 +82403-4 0  9994
2 42856 096.9129 245.3583 0008439 187.8551 172.2566 15.40305761139354
1 42856U 17042AH  20009.15310955  .00004913  00000-0  12367-3 0  9998
2 42856  96.9130 245.7882 0008493 185.9746 174.1402 15.40314691139427
1 42857U 17042AJ  20008.88914215 +.00005577 +00000-0 +13354-3 0  9991
2 42857 096.9122 245.8156 0008270 182.1767 177.9447 15.41778453139408
1 42857U 17042AJ  20009.14875399  .00005615  00000-0  13443-3 0  9992
2 42857  96.9121 246.0616 0008295 181.2510 178.8719 15.41781398139442
1 42858U 17042AK  20008.78527634 +.00005115 +00000-0 +12356-3 0  9995
2 42858 096.9132 245.8756 0008284 184.7337 175.3835 15.41552802139391
1 42858U 17042AK  20009.17475060  .00005489  00000-0  13243-3 0  9994
2 42858  96.9131 246.2446 0008330 183.3234 176.7960 15.41557584139457
1 42859U 17042AL  20008.88397085 +.00003122 +00000-0 +79452-4 0  9999
2 42859 096.9142 245.6264 0008718 187.9619 172.1491 15.40248749139388
1 42860U 17042AM  20008.89108468 +.00004570 +00000-0 +11521-3 0  9997
2 42860 096.9141 245.6070 0008585 188.3879 171.7226 15.40302947139381
1 42860U 17042AM  20009.54073455  .00004902  00000-0  12341-3 0  9997
2 42860  96.9139 246.2214 0008643 185.8985 174.2162 15.40309580139488
1 42862U 17042AP  20008.88729041  .00004712  00000-0  11872-3 0  9991
2 42862  96.9142 245.6513 0008878 188.4037 171.7063 15.40302638139395
1 42862U 17042AP  20008.88729041 +.00004712 +00000-0 +11872-3 0  9991
2 42862 096.9142 245.6513 0008878 188.4037 171.7063 15.40302638139395
1 42863U 17042AQ  20008.42025857 +.00004848 +00000-0 +12109-3 0  9990
2 42863 096.9134 245.1712 0008719 191.0204 169.0854 15.40559732139312
1 42863U 17042AQ  20009.13475397  .00005161  00000-0  12873-3 0  9994
2 42863  96.9132 245.8470 0008795 188.2768 171.8336 15.40567545139424
1 42864U 17042AR  20008.78998842 +.00005130 +00000-0 +12094-3 0  9991
2 42864 096.9131 246.3056 0008238 184.5942 175.5232 15.42286494139424
1 42864U 17042AR  20009.17927750  .00005634  00000-0  13263-3 0  9993
2 42864  96.9130 246.6747 0008290 183.1108 177.0091 15.42291567139483
1 42865U 17042AS  20008.88208983 +.00004567 +00000-0 +11523-3 0  9992
2 42865 096.9142 245.6568 0008861 189.5531 170.5550 15.40276611139389
1 42866U 17042AT  20008.87951551 +.00002501 +00000-0 +63959-4 0  9995
2 42866 096.9140 245.6284 0008881 188.7913 171.3180 15.40284035139387
1 42867U 17042AU  20008.87678220 +.00003440 +00000-0 +87247-4 0  9994
2 42867 096.9136 245.6314 0008992 189.6025 170.5052 15.40280731139382
1 42867U 17042AU  20009.20161138  .00004438  00000-0  11200-3 0  9990
2 42867  96.9138 245.9386 0009040 188.2892 171.8208 15.40286137139437
1 42869U 17042AW  20008.87109247 +.00002289 +00000-0 +58704-4 0  9990
2 42869 096.9134 245.6079 0009077 184.8699 175.2462 15.40274421139385
1 42869U 17042AW  20009.19592378  .00002352  00000-0  60254-4 0  9991
2 42869  96.9134 245.9151 0009114 183.6324 176.4859 15.40276276139432
1 42871U 17042AY  20008.54123300 +.00002262 +00000-0 +58020-4 0  9995
2 42871 096.9137 245.3293 0009099 186.2969 173.8166 15.40274629139336
1 42871U 17042AY  20009.45075961  .00002325  00000-0  59591-4 0  9999
2 42871  96.9136 246.1893 0009215 182.8748 177.2448 15.40279325139471
1 42872U 17042AZ  20008.73353596 +.00002688 +00000-0 +68607-4 0  9993
2 42872 096.9144 245.5341 0009067 186.7166 173.3962 15.40275045139354
1 42872U 17042AZ  20009.51312980  .00002822  00000-0  71915-4 0  9998
2 42872  96.9142 246.2713 0009165 183.7739 176.3441 15.40280071139478
1 42873U 17042BA  20008.73091293 +.00002280 +00000-0 +58463-4 0  9994
2 42873 096.9131 245.4893 0010175 176.1757 183.9570 15.40276786139369
1 42873U 17042BA  20009.12070972  .00002359  00000-0  60402-4 0  9992
2 42873  96.9130 245.8578 0010230 174.7529 185.3827 15.40279115139422
1 42874U 17042BB  20008.87173142 +.00001537 +00000-0 +45199-4 0  9990
2 42874 096.9129 242.6063 0011410 193.8026 166.2909 15.36455911139176
1 42874U 17042BB  20009.19736942  .00001556  00000-0  45723-4 0  9993
2 42874  96.9128 242.9124 0011443 192.4907 167.6056 15.36457152139228
1 42875U 17042BC  20008.71544018 +.00002676 +00000-0 +68289-4 0  9998
2 42875 096.9141 245.5615 0010533 178.7917 181.3358 15.40274017139360
1 42875U 17042BC  20009.62496695  .00002920  00000-0  74303-4 0  9992
2 42875  96.9139 246.4216 0010638 175.4523 184.6823 15.40280109139505
1 42877U 17042BE  20008.79337237 +.00002406 +00000-0 +61585-4 0  9994
2 42877 096.9141 245.6146 0010481 177.9639 182.1653 15.40277518139373
1 42878U 17042BF  20008.78399561 +.00004875 +00000-0 +11937-3 0  9999
2 42878 096.9133 245.7329 0009965 177.9346 182.1944 15.41151245139382
1 42878U 17042BF  20009.17357135  .00005251  00000-0  12840-3 0  9997
2 42878  96.9133 246.1018 0010014 176.5422 183.5897 15.41155857139441
1 42882U 17042BK  20008.79485036 +.00005267 +00000-0 +12455-3 0  9990
2 42882 096.9118 246.0023 0010119 177.2243 182.9063 15.42164824139408
1 42882U 17042BK  20009.18417006  .00005885  00000-0  13891-3 0  9997
2 42882  96.9117 246.3714 0010173 175.7991 184.3345 15.42170366139463
1 42883U 17042BL  20008.78964573 +.00005095 +00000-0 +12291-3 0  9995
2 42883 096.9132 245.9910 0010416 175.6410 184.4931 15.41577293139404
1 42884U 17042BM  20008.79073592 +.00002309 +00000-0 +59175-4 0  9997
2 42884 096.9137 245.5832 0010471 178.4231 181.7052 15.40278827139372
1 42885U 17042BN  20008.87247018 +.00005063 +00000-0 +12318-3 0  9990
2 42885 096.9142 245.9357 0010548 176.1441 183.9890 15.41319085139409
1 42886U 17042BP  20008.72332343 +.00004280 +00000-0 +10805-3 0  9990
2 42886 096.9141 245.5673 0010891 179.0733 181.0536 15.40275882139369
1 42886U 17042BP  20009.17808679  .00004534  00000-0  11433-3 0  9990
2 42886  96.9140 245.9973 0010947 177.3336 182.7972 15.40280256139438
1 42887U 17042BQ  20008.71294292 +.00002935 +00000-0 +74707-4 0  9997
2 42887 096.9142 245.5718 0011082 178.2433 181.8855 15.40268418139361
1 42888U 17042BR  20008.71021769 +.00005056 +00000-0 +12123-3 0  9995
2 42888 096.9124 245.8921 0010404 174.2243 185.9127 15.41761658139398
1 42888U 17042BR  20009.16454263  .00005682  00000-0  13599-3 0  9997
2 42888  96.9122 246.3225 0010455 172.5789 187.5616 15.41767779139460
1 42889U 17042BS  20008.72073408 +.00004170 +00000-0 +10536-3 0  9996
2 42889 096.9148 245.5831 0010659 176.5755 183.5567 15.40265782139362
1 42889U 17042BS  20009.17549998  .00004669  00000-0  11771-3 0  9993
2 42889  96.9147 246.0132 0010708 174.8227 185.3133 15.40271018139437
1 42891U 17042BU  20008.78674549 +.00005668 +00000-0 +13257-3 0  9994
2 42891 096.9165 246.3008 0010428 169.8571 190.2890 15.42463466139415
1 42891U 17042BU  20009.17599000  .00006108  00000-0  14267-3 0  9998
2 42891  96.9164 246.6701 0010481 168.4655 191.6836 15.42468835139470
1 42892U 17042BV  20008.88943375 +.00005041 +00000-0 +12171-3 0  9991
2 42892 096.9127 245.9855 0010552 173.7437 186.3944 15.41550847139417
1 42893U 17042BW  20008.70528449 +.00003344 +00000-0 +84827-4 0  9996
2 42893 096.9143 245.6136 0010901 178.2165 181.9123 15.40276777139361
1 42894U 17042BX  20008.71806245 +.00002299 +00000-0 +58923-4 0  9997
2 42894 096.9139 245.5654 0010909 174.0851 186.0527 15.40273655139361
1 42895U 17042BY  20008.90261604 +.00004986 +00000-0 +12551-3 0  9994
2 42895 096.9138 245.7237 0011079 174.9880 185.1480 15.40281065139395
1 42896U 17042BZ  20008.89823613 +.00003536 +00000-0 +86619-4 0  9994
2 42896 096.9125 246.4139 0010665 172.1001 188.0417 15.41311014139612
